SNOOPI                  
1 59563U 98067WN  24229.82097764  .00233556  00000+0  15882-2 0  9999
2 59563  51.6331   6.0655 0005316 281.3651  78.6751 15.73649985 18811
SHENZHOU-18 (SZ-18)     
1 59591U 24078A   24229.59507713  .00060645  00000+0  70428-3 0  9990
2 59591  41.4681  74.9618 0002576 258.4969 101.5581 15.60847945 17023
1998-067WP              
1 59596U 98067WP  24228.67888084  .00608764  15596-3  19031-2 0  9997
2 59596  51.6262   7.3694 0008735 300.4351  59.5791 15.90852217 18720
1998-067WQ              
1 59597U 98067WQ  24229.54755741  .00711339  21670-3  20707-2 0  9993
2 59597  51.6321   2.7013 0009216 304.5353  55.4783 15.92221785 18833
SZ-17 MODULE            
1 59624U 23164C   24229.98210106  .00079804  00000+0  60281-3 0  9995
2 59624  41.4751  69.0837 0010067 312.5915  47.4078 15.71373848 17086
PROGRESS-MS 27          
1 59913U 24103A   24229.81007482  .00026259  00000+0  46285-3 0  9997
2 59913  51.6398  15.0033 0005276 213.4637 146.6019 15.50216656   283
STARLINER CFT-1         
1 59968U 24109A   24229.81007482  .00026259  00000+0  46285-3 0  9993
2 59968  51.6398  15.0033 0005276 213.4637 146.6019 15.50216656 10846
CYGNUS NG-21            
1 60378U 24139A   24229.81007482  .00026259  00000+0  46285-3 0  9993
2 60378  51.6398  15.0033 0005276 213.4637 146.6019 15.50216656    55
PROGRESS-MS 28          
1 60450U 24145A   24229.88300231  .00152247  20014-4  40683-3 0  9991
2 60450  51.6413  14.7408 0022225 320.5332  39.4056 15.93745952   289
SL-4 R/B                
1 60451U 24145B   24229.86706031  .11498580  12559-4  40950-3 0  9995
2 60451  51.6520  14.4153 0010485  68.9144  56.5989 16.43492011   255
